OBJECT_NAME,OBJECT_ID,EPOCH,MEAN_MOTION,ECCENTRICITY,INCLINATION,RA_OF_ASC_NODE,ARG_OF_PERICENTER,MEAN_ANOMALY,EPHEMERIS_TYPE,CLASSIFICATION_TYPE,NORAD_CAT_ID,ELEMENT_SET_NO,REV_AT_EPOCH,BSTAR,MEAN_MOTION_DOT,MEAN_MOTION_DDOT
COSMOS 2058,1990-010A,2026-06-30T08:54:02.577888,15.12094037,.00085471,82.4695,296.3539,309.4295,50.6178,0,U,20465,999,95926,.15612956E-3,.2717E-4,0
SL-14 R/B,1990-010B,2026-06-30T10:53:55.068576,14.83654695,.00182742,82.5022,161.4852,289.9497,69.9750,0,U,20466,999,94520,.42723388E-4,.377E-5,0
SL-14 R/B,1990-018B,2026-06-30T07:27:05.256864,14.82224993,.00176894,82.5220,117.8423,82.1172,278.2049,0,U,20511,999,93926,.49451713E-4,.419E-5,0
HST,1990-037B,2026-06-29T20:32:25.443456,15.30894447,.00014544,28.4734,353.9830,299.7936,60.2516,0,U,20580,999,79051,.22252566E-3,.7072E-4,0
SL-16 R/B,1990-046B,2026-06-30T02:19:17.200704,14.15025151,.00125842,70.9996,61.8367,140.9909,219.2124,0,U,20625,999,86429,-.10321104E-3,-.248E-5,0
COSMOS 2084,1990-055A,2026-06-30T11:20:53.142720,15.06170839,.00064536,62.7914,310.7427,300.8868,59.1597,0,U,20663,999,95330,.15173113E-3,.2032E-4,0
SL-6 R/B(2),1990-055D,2026-06-30T11:30:35.107200,15.04041888,.00428152,62.7807,230.1428,6.9689,353.1996,0,U,20666,999,95515,.11174843E-3,.1374E-4,0
SL-8 R/B,1990-078B,2026-06-30T09:37:29.533728,14.92979405,.03470857,82.9022,149.7000,353.8255,5.8733,0,U,20775,999,82609,.7588767E-3,.26835E-3,0
SL-8 R/B,1991-006B,2026-06-30T07:04:31.990944,13.77507149,.00238737,82.9423,86.2830,79.9925,39.4268,0,U,21088,999,77957,.64484571E-4,.8E-6,0
OKEAN-3,1991-039A,2026-06-30T04:00:28.679904,15.05381620,.0012554,82.5156,227.7953,309.9088,50.1035,0,U,21397,999,88195,.11959076E-3,.1744E-4,0
COSMOS 2151,1991-042A,2026-06-30T12:44:15.506592,15.00475981,.00132377,82.4968,334.8024,43.3759,316.8505,0,U,21422,999,88011,.11336176E-3,.1456E-4,0
SL-14 R/B,1991-042B,2026-06-30T12:32:10.591584,14.81910392,.00157835,82.4935,114.3909,226.8916,133.0979,0,U,21423,999,86978,.40019766E-4,.34E-5,0
ERS-1,1991-050A,2026-06-30T02:14:12.463584,14.39525449,.00310456,98.7794,202.1065,227.2929,132.5643,0,U,21574,999,83190,.12840706E-3,.356E-5,0
ARIANE 40 R/B,1991-050F,2026-06-30T13:41:57.923520,14.42964621,.00044705,98.1868,229.4660,92.7324,267.4379,0,U,21610,999,83527,.96180399E-4,.28E-5,0
INTERCOSMOS 25,1991-086A,2026-06-30T13:34:24.821184,12.12217100,.14840109,82.6033,241.7143,233.5038,112.0221,0,U,21819,999,51036,.11637115E-3,.589E-5,0
SL-8 R/B,1992-008B,2026-06-30T12:22:58.475712,13.75980378,.00347386,82.9260,183.8771,177.0314,294.9176,0,U,21876,999,72493,.11891265E-3,.131E-5,0
SL-8 R/B,1992-020B,2026-06-30T05:34:09.444000,13.75550000,.00288265,82.9300,70.1680,346.4441,135.0128,0,U,21938,999,71660,.47206627E-4,.61E-6,0
USA 81,1992-023A,2026-06-30T04:45:28.099296,14.32401463,.00025421,85.0066,66.4978,73.3691,286.7780,0,U,21949,999,11089,.54355652E-4,.167E-5,0
COSMOS 2219,1992-076A,2026-06-30T08:20:47.017824,14.14108103,.00173094,71.0604,142.5599,21.7391,338.4463,0,U,22219,999,73430,.12354225E-3,.189E-5,0
SL-16 R/B,1992-076B,2026-06-30T12:23:09.229056,14.16874884,.00150628,71.0014,310.7028,281.0823,149.1127,0,U,22220,999,73781,-.8488544E-4,-.218E-5,0
COSMOS 2221,1992-080A,2026-06-30T10:40:14.068128,14.96567275,.00145367,82.5032,171.0623,166.7623,193.3984,0,U,22236,999,79765,.13317241E-3,.1544E-4,0
SL-16 R/B,1992-093B,2026-06-30T07:35:29.075136,14.15463128,.0003241,71.0212,127.8294,163.7251,196.3977,0,U,22285,999,72909,.16898627E-3,.283E-5,0
COSMOS 2228,1992-094A,2026-06-30T14:01:21.811008,14.97633245,.00160455,82.5184,129.2105,283.5096,76.4339,0,U,22286,999,79295,.15993687E-3,.19E-4,0
SL-16 R/B,1993-016B,2026-06-30T10:32:16.937088,14.15314729,.00093441,71.0088,338.3730,164.1549,195.9868,0,U,22566,999,71812,-.10329568E-3,-.249E-5,0
COSMOS 2242,1993-024A,2026-06-30T09:59:17.491488,14.96943557,.0014447,82.5185,158.8858,288.0795,71.8853,0,U,22626,999,79725,.15481901E-3,.1807E-4,0
SL-16 R/B,1993-059B,2026-06-30T06:21:32.123232,14.17248456,.00158422,70.9897,133.7251,32.3964,327.8129,0,U,22803,999,69548,.13800312E-3,.231E-5,0
ARIANE 40 R/B,1993-061H,2026-06-30T04:38:31.056000,14.32912976,.00097307,98.4814,247.7801,315.5686,44.4717,0,U,22830,999,71021,.86396299E-4,.193E-5,0
COSMOS 2278,1994-023A,2026-06-30T11:19:45.410304,14.14397299,.00103501,71.0550,299.1303,227.4046,132.6205,0,U,23087,999,66075,-.87779315E-4,-.215E-5,0
SL-16 R/B,1994-023B,2026-06-30T11:13:45.937920,14.15026845,.00018743,70.9982,194.0407,173.8546,186.2600,0,U,23088,999,66204,-.7920096E-4,-.201E-5,0
SL-16 R/B,1994-074B,2026-06-30T13:21:39.253248,14.79513388,.00058974,97.6986,207.7204,201.4157,317.4582,0,U,23343,999,70393,.62801491E-4,.42E-5,0
