COSMOS 2058             
1 20465U 90010A   26181.37086317  .00002717  00000+0  15613-3 0  9995
2 20465  82.4695 296.3539 0008547 309.4295  50.6178 15.12094037959266
SL-14 R/B               
1 20466U 90010B   26181.45410959  .00000377  00000+0  42723-4 0  9991
2 20466  82.5022 161.4852 0018274 289.9497  69.9750 14.83654695945203
SL-14 R/B               
1 20511U 90018B   26181.31047751  .00000419  00000+0  49452-4 0  9994
2 20511  82.5220 117.8423 0017689  82.1172 278.2049 14.82224993939263
HST                     
1 20580U 90037B   26180.85585004  .00007072  00000+0  22253-3 0  9998
2 20580  28.4734 353.9830 0001454 299.7936  60.2516 15.30894447790512
SL-16 R/B               
1 20625U 90046B   26181.09672686 -.00000248  00000+0 -10321-3 0  9991
2 20625  70.9996  61.8367 0012584 140.9909 219.2124 14.15025151864295
COSMOS 2084             
1 20663U 90055A   26181.47283730  .00002032  00000+0  15173-3 0  9994
2 20663  62.7914 310.7427 0006453 300.8868  59.1597 15.06170839953309
SL-6 R/B(2)             
1 20666U 90055D   26181.47957300  .00001374  00000+0  11175-3 0  9994
2 20666  62.7807 230.1428 0042815   6.9689 353.1996 15.04041888955150
SL-8 R/B                
1 20775U 90078B   26181.40103627  .00026835  00000+0  75888-3 0  9998
2 20775  82.9022 149.7000 0347085 353.8255   5.8733 14.92979405826096
SL-8 R/B                
1 21088U 91006B   26181.29481471  .00000080  00000+0  64485-4 0  9997
2 21088  82.9423  86.2830 0023873  79.9925  39.4268 13.77507149779571
OKEAN-3                 
1 21397U 91039A   26181.16699861  .00001744  00000+0  11959-3 0  9991
2 21397  82.5156 227.7953 0012554 309.9088  50.1035 15.05381620881956
COSMOS 2151             
1 21422U 91042A   26181.53073503  .00001456  00000+0  11336-3 0  9993
2 21422  82.4968 334.8024 0013237  43.3759 316.8505 15.00475981880117
SL-14 R/B               
1 21423U 91042B   26181.52234481  .00000340  00000+0  40020-4 0  9991
2 21423  82.4935 114.3909 0015783 226.8916 133.0979 14.81910392869788
ERS-1                   
1 21574U 91050A   26181.09319981  .00000356  00000+0  12841-3 0  9994
2 21574  98.7794 202.1065 0031045 227.2929 132.5643 14.39525449831908
ARIANE 40 R/B           
1 21610U 91050F   26181.57080930  .00000280  00000+0  96180-4 0  9992
2 21610  98.1868 229.4660 0004470  92.7324 267.4379 14.42964621835275
INTERCOSMOS 25          
1 21819U 91086A   26181.56556506  .00000589  00000+0  11637-3 0  9993
2 21819  82.6033 241.7143 1484010 233.5038 112.0221 12.12217100510360
SL-8 R/B                
1 21876U 92008B   26181.51595458  .00000131  00000+0  11891-3 0  9990
2 21876  82.9260 183.8771 0034738 177.0314 294.9176 13.75980378724930
SL-8 R/B                
1 21938U 92020B   26181.23205375  .00000061  00000+0  47207-4 0  9991
2 21938  82.9300  70.1680 0028826 346.4441 135.0128 13.75550000716607
USA 81                  
1 21949U 92023A   26181.19824189  .00000167  00000+0  54356-4 0  9991
2 21949  85.0066  66.4978 0002542  73.3691 286.7780 14.32401463110899
COSMOS 2219             
1 22219U 92076A   26181.34776641  .00000189  00000+0  12354-3 0  9991
2 22219  71.0604 142.5599 0017309  21.7391 338.4463 14.14108103734305
SL-16 R/B               
1 22220U 92076B   26181.51607904 -.00000218  00000+0 -84885-4 0  9991
2 22220  71.0014 310.7028 0015062 281.0823 149.1127 14.16874884737814
COSMOS 2221             
1 22236U 92080A   26181.44460727  .00001544  00000+0  13317-3 0  9997
2 22236  82.5032 171.0623 0014536 166.7623 193.3984 14.96567275797650
SL-16 R/B               
1 22285U 92093B   26181.31630874  .00000283  00000+0  16899-3 0  9990
2 22285  71.0212 127.8294 0003241 163.7251 196.3977 14.15463128729096
COSMOS 2228             
1 22286U 92094A   26181.58428022  .00001900  00000+0  15994-3 0  9993
2 22286  82.5184 129.2105 0016045 283.5096  76.4339 14.97633245792957
SL-16 R/B               
1 22566U 93016B   26181.43908492 -.00000249  00000+0 -10330-3 0  9993
2 22566  71.0088 338.3730 0009344 164.1549 195.9868 14.15314729718126
COSMOS 2242             
1 22626U 93024A   26181.41617467  .00001807  00000+0  15482-3 0  9998
2 22626  82.5185 158.8858 0014447 288.0795  71.8853 14.96943557797256
SL-16 R/B               
1 22803U 93059B   26181.26495513  .00000231  00000+0  13800-3 0  9994
2 22803  70.9897 133.7251 0015842  32.3964 327.8129 14.17248456695482
ARIANE 40 R/B           
1 22830U 93061H   26181.19341500  .00000193  00000+0  86396-4 0  9993
2 22830  98.4814 247.7801 0009730 315.5686  44.4717 14.32912976710215
COSMOS 2278             
1 23087U 94023A   26181.47205336 -.00000215  00000+0 -87779-4 0  9997
2 23087  71.0550 299.1303 0010350 227.4046 132.6205 14.14397299660753
SL-16 R/B               
1 23088U 94023B   26181.46789280 -.00000201  00000+0 -79201-4 0  9998
2 23088  70.9982 194.0407 0001874 173.8546 186.2600 14.15026845662044
SL-16 R/B               
1 23343U 94074B   26181.55670432  .00000420  00000+0  62801-4 0  9995
2 23343  97.6986 207.7204 0005897 201.4157 317.4582 14.79513388703934
